ONEWEB-0570             
1 55149U 23004K   23293.91667824 -.00995506  00000+0 -78005+0 0  9999
2 55149  87.2512 170.0293 0002596  61.4319 201.4299 13.95320044  5608
ONEWEB-0571             
1 55150U 23004L   23293.91667824 -.00967871  00000+0 -73629+0 0  9992
2 55150  87.2452 170.0564 0002656  31.3037 158.7208 13.96915248  5638
ONEWEB-0572             
1 55151U 23004M   23293.29503135  .00000208  00000+0  50136-3 0  9990
2 55151  87.9261 198.8175 0001579  89.8230 270.3083 13.17648338 39620
ONEWEB-0573             
1 55152U 23004N   23293.91667824 -.00976010  00000+0 -74838+0 0  9992
2 55152  87.2512 170.0696 0003433  18.4787 139.8832 13.96490614  5655
ONEWEB-0588             
1 55153U 23004P   23293.91667824 -.00965850  00000+0 -74039+0 0  9996
2 55153  87.2326 170.0642 0005507   1.2160  41.8031 13.96467963  5596
ONEWEB-0598             
1 55154U 23004Q   23293.28288169 -.00000316  00000+0 -92692-3 0  9994
2 55154  87.8990 213.9821 0001210  52.4696 307.6541 13.11421178 38641
ONEWEB-0599             
1 55155U 23004R   23293.25708340  .00000130  00000+0  30229-3 0  9990
2 55155  87.9257 198.7993 0001921  70.3047 289.8292 13.17645604 39628
ONEWEB-0614             
1 55156U 23004S   23293.35431465 -.00000461  00000+0 -13376-2 0  9995
2 55156  87.9021 213.9524 0002163  86.5554 273.5821 13.11412175 38591
